EPOCH,NORAD_CAT_ID,MEAN_MOTION,ECCENTRICITY,INCLINATION,RA_OF_ASC_NODE,ARG_OF_PERICENTER,MEAN_ANOMALY,MEAN_MOTION_DOT,BSTAR,TLE_LINE1,TLE_LINE2
2023-04-24 05:16:33.012192,50803,15.08882102,0.00006570,53.2156,204.8650,129.4007,230.7043,0.00040457,0.00254260000000,1 50803U 22001A   23114.21982653  .00040457  00000-0  25426-2 0  9999,2 50803  53.2156 204.8650 0000657 129.4007 230.7043 15.08882102 71828
2023-04-25 09:53:29.589792,50803,15.08807412,0.00010390,53.2149,199.5132,60.3976,299.7119,-0.00020646,-0.00128400000000,1 50803U 22001A   23115.41214803 -.00020646  00000-0 -12840-2 0  9993,2 50803  53.2149 199.5132 0001039  60.3976 299.7119 15.08807412 72009
2023-04-25 09:53:29.589792,50803,15.08807412,0.00010390,53.2149,199.5132,60.3976,299.7119,-0.00020646,-0.00128400000000,1 50803U 22001A   23115.41214803 -.00020646  00000-0 -12840-2 0  9993,2 50803  53.2149 199.5132 0001039  60.3976 299.7119 15.08807412 73279
2023-04-26 11:19:42.159072,50803,15.08822825,0.00015120,53.2131,194.7527,48.6480,311.4642,0.00018088,0.00115220000000,1 50803U 22001A   23116.47201573  .00018088  00000-0  11522-2 0  9991,2 50803  53.2131 194.7527 0001512  48.6480 311.4642 15.08822825 73436
2023-04-27 11:10:28.717824,50803,15.08867619,0.00014580,53.2133,190.2922,49.1539,310.9579,0.00022939,0.00145360000000,1 50803U 22001A   23117.46561016  .00022939  00000-0  14536-2 0  9990,2 50803  53.2133 190.2922 0001458  49.1539 310.9579 15.08867619 72317
2023-04-27 15:56:37.768128,50803,15.08876201,0.00015110,53.2134,189.4002,48.1249,311.9872,0.00023221,0.00147080000000,1 50803U 22001A   23117.66432602  .00023221  00000-0  14708-2 0  9996,2 50803  53.2134 189.4002 0001511  48.1249 311.9872 15.08876201 73612
2023-04-28 11:01:14.527488,50803,15.08873375,0.00013750,53.2150,185.8322,47.7238,312.3871,0.00012392,0.00079459000000,1 50803U 22001A   23118.45919592  .00012392  00000-0  79459-3 0  9994,2 50803  53.2150 185.8322 0001375  47.7238 312.3871 15.08873375 72461
2023-04-28 11:01:14.527488,50803,15.08873375,0.00013750,53.2150,185.8322,47.7238,312.3871,0.00012392,0.00079459000000,1 50803U 22001A   23118.45919592  .00012392  00000-0  79459-3 0  9994,2 50803  53.2150 185.8322 0001375  47.7238 312.3871 15.08873375 73732
2023-04-29 04:30:28.791936,50803,15.08849258,0.00013690,53.2147,182.5609,55.1272,304.9848,0.00005613,0.00037035000000,1 50803U 22001A   23119.18783324  .00005613  00000-0  37035-3 0  9999,2 50803  53.2147 182.5609 0001369  55.1272 304.9848 15.08849258 73840
2023-04-29 12:27:24.404544,50803,15.08853339,0.00013130,53.2149,181.0735,58.4869,301.6251,0.00006982,0.00045615000000,1 50803U 22001A   23119.51903246  .00006982  00000-0  45615-3 0  9996,2 50803  53.2149 181.0735 0001313  58.4869 301.6251 15.08853339 72625
2023-04-30 09:07:25.392000,50803,15.08839993,0.00013670,53.2148,177.2056,78.8925,281.2220,0.00001591,0.00011803000000,1 50803U 22001A   23120.38015500  .00001591  00000-0  11803-3 0  9993,2 50803  53.2148 177.2056 0001367  78.8925 281.2220 15.08839993 74020
2023-04-30 09:07:25.392000,50803,15.08839993,0.00013670,53.2148,177.2056,78.8925,281.2220,0.00001591,0.00011803000000,1 50803U 22001A   23120.38015500  .00001591  00000-0  11803-3 0  9993,2 50803  53.2148 177.2056 0001367  78.8925 281.2220 15.08839993 72758
2023-05-01 12:08:59.140320,50803,15.08836115,0.00015350,53.2164,172.1503,77.2270,282.8893,0.00000262,0.00003456100000,1 50803U 22001A   23121.50624005  .00000262  00000-0  34561-4 0  9995,2 50803  53.2164 172.1503 0001535  77.2270 282.8893 15.08836115 74196
2023-05-01 13:44:22.308288,50803,15.08835839,0.00014700,53.2154,171.8542,69.2410,290.8739,0.00000004,0.00001833500000,1 50803U 22001A   23121.57248042  .00000004  00000-0  18335-4 0  9990,2 50803  53.2154 171.8542 0001470  69.2410 290.8739 15.08835839 72939
2023-05-02 11:59:45.743136,50803,15.08849553,0.00012880,53.2143,167.6921,79.2088,280.9049,0.00004189,0.00028105000000,1 50803U 22001A   23122.49983499  .00004189  00000-0  28105-3 0  9997,2 50803  53.2143 167.6921 0001288  79.2088 280.9049 15.08849553 73078
2023-05-02 11:59:45.743136,50803,15.08849553,0.00012880,53.2143,167.6921,79.2088,280.9049,0.00004189,0.00028105000000,1 50803U 22001A   23122.49983499  .00004189  00000-0  28105-3 0  9997,2 50803  53.2143 167.6921 0001288  79.2088 280.9049 15.08849553 74349
2023-05-03 03:53:37.546368,50803,15.08839279,0.00015710,53.2143,164.7170,69.0397,291.0763,0.00001473,0.00011062000000,1 50803U 22001A   23123.16224012  .00001473  00000-0  11062-3 0  9998,2 50803  53.2143 164.7170 0001571  69.0397 291.0763 15.08839279 74449
2023-05-03 11:50:33.160704,50803,15.08839492,0.00012990,53.2140,163.2315,72.5716,287.5418,0.00000528,0.00005126400000,1 50803U 22001A   23123.49343936  .00000528  00000-0  51264-4 0  9990,2 50803  53.2140 163.2315 0001299  72.5716 287.5418 15.08839492 73221
2023-05-04 11:41:20.036544,50803,15.08846920,0.00013700,53.2149,158.7702,85.0670,275.0478,0.00001049,0.00008400100000,1 50803U 22001A   23124.48703746  .00001049  00000-0  84001-4 0  9993,2 50803  53.2149 158.7702 0001370  85.0670 275.0478 15.08846920 74646
2023-05-04 19:38:15.692352,50803,15.08847006,0.00012200,53.2147,157.2835,78.8913,281.2217,0.00000359,0.00004061100000,1 50803U 22001A   23124.81823718  .00000359  00000-0  40611-4 0  9994,2 50803  53.2147 157.2835 0001220  78.8913 281.2217 15.08847006 73420
2023-05-05 11:32:07.265760,50803,15.08842534,0.00012870,53.2147,154.3095,81.3568,278.7570,0.00001419,0.00010719000000,1 50803U 22001A   23125.48063965  .00001419  00000-0  10719-3 0  9991,2 50803  53.2147 154.3095 0001287  81.3568 278.7570 15.08842534 74799
2023-05-05 19:29:03.096960,50803,15.08840953,0.00013010,53.2146,152.8228,80.5426,279.5713,0.00001067,0.00008514100000,1 50803U 22001A   23125.81184140  .00001067  00000-0  85141-4 0  9998,2 50803  53.2146 152.8228 0001301  80.5426 279.5713 15.08840953 73576
2023-05-06 08:12:08.342208,50803,15.08840570,0.00013270,53.2148,150.4437,83.6713,276.4431,0.00000562,0.00005338100000,1 50803U 22001A   23126.34176322  .00000562  00000-0  53381-4 0  9990,2 50803  53.2148 150.4437 0001327  83.6713 276.4431 15.08840570 73652
2023-05-06 08:12:08.342208,50803,15.08840570,0.00013270,53.2148,150.4437,83.6713,276.4431,0.00000562,0.00005338100000,1 50803U 22001A   23126.34176322  .00000562  00000-0  53381-4 0  9990,2 50803  53.2148 150.4437 0001327  83.6713 276.4431 15.08840570 74923
2023-05-07 06:27:31.766688,50803,15.08845813,0.00012870,53.2150,146.2801,87.8174,272.2966,0.00001522,0.00011370000000,1 50803U 22001A   23127.26911767  .00001522  00000-0  11370-3 0  9990,2 50803  53.2150 146.2801 0001287  87.8174 272.2966 15.08845813 73792
2023-05-08 04:42:56.302272,50803,15.08837868,0.00012100,53.2151,142.1159,91.0871,269.0259,0.00000843,0.00007103300000,1 50803U 22001A   23128.19648498  .00000843  00000-0  71033-4 0  9999,2 50803  53.2151 142.1159 0001210  91.0871 269.0259 15.08837868 75209
2023-05-08 17:26:01.626144,50803,15.08837071,0.00012100,53.2155,139.7391,76.4325,283.6801,0.00000025,0.00001962900000,1 50803U 22001A   23128.72640771  .00000025  00000-0  19629-4 0  9999,2 50803  53.2155 139.7391 0001210  76.4325 283.6801 15.08837071 74013
2023-05-09 06:09:06.699456,50803,15.08836791,0.00012410,53.2155,137.3593,71.4001,288.7126,0.00000883,0.00007358200000,1 50803U 22001A   23129.25632754  .00000883  00000-0  73582-4 0  9990,2 50803  53.2155 137.3593 0001241  71.4001 288.7126 15.08836791 74093
2023-05-10 07:35:17.251296,50803,15.08830876,0.00012670,53.2155,132.6010,89.0952,271.0185,0.00000510,0.00005012700000,1 50803U 22001A   23130.31617189  .00000510  00000-0  50127-4 0  9991,2 50803  53.2155 132.6010 0001267  89.0952 271.0185 15.08830876 74259
2023-05-10 17:07:35.851296,50803,15.08836293,0.00012920,53.2155,130.8178,92.6539,267.4601,0.00000996,0.00008066400000,1 50803U 22001A   23130.71360939  .00000996  00000-0  80664-4 0  9990,2 50803  53.2155 130.8178 0001292  92.6539 267.4601 15.08836293 74311
2023-05-10 23:29:08.115360,50803,15.08841771,0.00012730,53.2153,129.6292,96.9371,263.1766,0.00001245,0.00009627900000,1 50803U 22001A   23130.97856615  .00001245  00000-0  96279-4 0  9996,2 50803  53.2153 129.6292 0001273  96.9371 263.1766 15.08841771 75629
2023-05-11 07:26:03.428160,50803,15.08846088,0.00015230,53.2145,128.1416,114.7419,245.3731,0.00000313,0.00003773300000,1 50803U 22001A   23131.30976190  .00000313  00000-0  37733-4 0  9990,2 50803  53.2145 128.1416 0001523 114.7419 245.3731 15.08846088 74407
2023-05-11 16:58:23.426112,50803,15.08825259,0.00015160,53.2145,126.3551,117.9504,242.1642,0.00005882,0.00038753000000,1 50803U 22001A   23131.70721558  .00005882  00000-0  38753-3 0  9998,2 50803  53.2145 126.3551 0001516 117.9504 242.1642 15.08825259 75739
2023-05-11 16:58:23.426112,50803,15.08825259,0.00015160,53.2145,126.3551,117.9504,242.1642,0.00005882,0.00038753000000,1 50803U 22001A   23131.70721558  .00005882  00000-0  38753-3 0  9998,2 50803  53.2145 126.3551 0001516 117.9504 242.1642 15.08825259 74468
2023-05-12 05:41:28.521024,50803,15.08829375,0.00013470,53.2144,123.9764,90.2006,269.9140,0.00001094,0.00008681400000,1 50803U 22001A   23132.23713566  .00001094  00000-0  86814-4 0  9990,2 50803  53.2144 123.9764 0001347  90.2006 269.9140 15.08829375 74540
2023-05-12 16:49:10.366752,50803,15.08837115,0.00013410,53.2146,121.8951,90.4386,269.6760,0.00002036,0.00014599000000,1 50803U 22001A   23132.70081443  .00002036  00000-0  14599-3 0  9991,2 50803  53.2146 121.8951 0001341  90.4386 269.6760 15.08837115 74618
2023-05-13 05:32:15.133344,50803,15.08845685,0.00013560,53.2147,119.5159,89.7463,270.3684,0.00003084,0.00021173000000,1 50803U 22001A   23133.23073071  .00003084  00000-0  21173-3 0  9998,2 50803  53.2147 119.5159 0001356  89.7463 270.3684 15.08845685 74699
2023-05-13 05:32:15.133344,50803,15.08845685,0.00013560,53.2147,119.5159,89.7463,270.3684,0.00003084,0.00021173000000,1 50803U 22001A   23133.23073071  .00003084  00000-0  21173-3 0  9998,2 50803  53.2147 119.5159 0001356  89.7463 270.3684 15.08845685 75960
